STARLINK-36959          
1 68060U 26041W   26082.95933115  .00240832  00000+0  15282-2 0  9995
2 68060  53.1589 350.7493 0002417 149.3937 210.7225 15.75279179  3470
STARLINK-36915          
1 68061U 26041X   26082.91667824  .00161868  00000+0  10426-2 0  9999
2 68061  53.1592 350.7496 0001462 109.2867 111.8018 15.75181279  4660
STARLINK-36952          
1 68062U 26041Y   26082.90009639  .00308962  00000+0  19465-2 0  9993
2 68062  53.1589 351.0922 0001332   4.2182 355.8849 15.75243571  3468
STARLINK-37000          
1 68063U 26041Z   26082.91667824  .00067546  00000+0  44142-3 0  9992
2 68063  53.1589 350.8024 0001139  58.7909 136.5532 15.75232096  4661
STARLINK-36996          
1 68064U 26041AA  26082.93088462  .00331003  00000+0  16179-2 0  9990
2 68064  53.1593 350.5589 0001068  66.8548 293.2588 15.80861555  3474
STARLINK-36836          
1 68065U 26041AB  26082.92938468  .00393468  00000+0  19092-2 0  9990
2 68065  53.1593 350.5487 0000958  66.2819 293.8304 15.80853803  3473
STARLINK-36976          
1 68066U 26041AC  26082.95479691  .00310261  00000+0  19550-2 0  9991
2 68066  53.1581 350.7173 0001383  29.0818 331.0279 15.75236274  3471
STARLINK-36929          
1 68067U 26041AD  26082.95898988  .00201846  00000+0  12864-2 0  9995
2 68067  53.1589 350.7453 0001275 127.5706 232.5431 15.75297410  3475
STARLINK-36990          
1 68068U 26041AE  26082.92788399  .00363915  00000+0  17706-2 0  9993
2 68068  53.1594 350.5380 0001247 144.4293 215.6813 15.80874068  3479
STARLINK-36766          
1 68069U 26042A   26082.92062516  .00369023  00000+0  17888-2 0  9998
2 68069  53.1579 123.4589 0001924 138.4596 221.6573 15.80941872  4336
STARLINK-36823          
1 68070U 26042B   26082.91987661  .00495957  00000+0  23629-2 0  9992
2 68070  53.1575 123.4529 0001284  40.0650 320.0468 15.80981991  4339
STARLINK-36970          
1 68071U 26042C   26082.91837843  .00372073  00000+0  18051-2 0  9995
2 68071  53.1576 123.4432 0000531  74.0154 286.0927 15.80913455  4335
