CCSDS_OMM_VERS = 2.0
CREATION_DATE  = 
ORIGINATOR     = 

OBJECT_NAME    = STARLINK-36959
OBJECT_ID      = 2026-041W
CENTER_NAME    = EARTH
REF_FRAME      = TEME
TIME_SYSTEM    = UTC
MEAN_ELEMENT_THEORY = SGP/SGP4

EPOCH          = 2026-03-23T23:01:26.211360
MEAN_MOTION    = 15.75279179
ECCENTRICITY   = .00024171
INCLINATION    = 53.1589
RA_OF_ASC_NODE = 350.7493
ARG_OF_PERICENTER = 149.3937
MEAN_ANOMALY   = 210.7225

EPHEMERIS_TYPE = 0
CLASSIFICATION_TYPE = U
NORAD_CAT_ID   = 68060
ELEMENT_SET_NO = 999
REV_AT_EPOCH   = 347
BSTAR          = .15281779E-2
MEAN_MOTION_DOT = .240832E-2
MEAN_MOTION_DDOT = 0

CCSDS_OMM_VERS = 2.0
CREATION_DATE  = 
ORIGINATOR     = 

OBJECT_NAME    = STARLINK-36915
OBJECT_ID      = 2026-041X
CENTER_NAME    = EARTH
REF_FRAME      = TEME
TIME_SYSTEM    = UTC
MEAN_ELEMENT_THEORY = SGP/SGP4

EPOCH          = 2026-03-23T22:00:00.999936
MEAN_MOTION    = 15.75181279
ECCENTRICITY   = .00014621
INCLINATION    = 53.1592
RA_OF_ASC_NODE = 350.7496
ARG_OF_PERICENTER = 109.2867
MEAN_ANOMALY   = 111.8018

EPHEMERIS_TYPE = 0
CLASSIFICATION_TYPE = U
NORAD_CAT_ID   = 68061
ELEMENT_SET_NO = 999
REV_AT_EPOCH   = 466
BSTAR          = .10426306E-2
MEAN_MOTION_DOT = .161868E-2
MEAN_MOTION_DDOT = 0

CCSDS_OMM_VERS = 2.0
CREATION_DATE  = 
ORIGINATOR     = 

OBJECT_NAME    = STARLINK-36952
OBJECT_ID      = 2026-041Y
CENTER_NAME    = EARTH
REF_FRAME      = TEME
TIME_SYSTEM    = UTC
MEAN_ELEMENT_THEORY = SGP/SGP4

EPOCH          = 2026-03-23T21:36:08.328096
MEAN_MOTION    = 15.75243571
ECCENTRICITY   = .00013321
INCLINATION    = 53.1589
RA_OF_ASC_NODE = 351.0922
ARG_OF_PERICENTER = 4.2182
MEAN_ANOMALY   = 355.8849

EPHEMERIS_TYPE = 0
CLASSIFICATION_TYPE = U
NORAD_CAT_ID   = 68062
ELEMENT_SET_NO = 999
REV_AT_EPOCH   = 346
BSTAR          = .19465388E-2
MEAN_MOTION_DOT = .308962E-2
MEAN_MOTION_DDOT = 0

CCSDS_OMM_VERS = 2.0
CREATION_DATE  = 
ORIGINATOR     = 

OBJECT_NAME    = STARLINK-37000
OBJECT_ID      = 2026-041Z
CENTER_NAME    = EARTH
REF_FRAME      = TEME
TIME_SYSTEM    = UTC
MEAN_ELEMENT_THEORY = SGP/SGP4

EPOCH          = 2026-03-23T22:00:00.999936
MEAN_MOTION    = 15.75232096
ECCENTRICITY   = .00011392
INCLINATION    = 53.1589
RA_OF_ASC_NODE = 350.8024
ARG_OF_PERICENTER = 58.7909
MEAN_ANOMALY   = 136.5532

EPHEMERIS_TYPE = 0
CLASSIFICATION_TYPE = U
NORAD_CAT_ID   = 68063
ELEMENT_SET_NO = 999
REV_AT_EPOCH   = 466
BSTAR          = .44141903E-3
MEAN_MOTION_DOT = .67546E-3
MEAN_MOTION_DDOT = 0

CCSDS_OMM_VERS = 2.0
CREATION_DATE  = 
ORIGINATOR     = 

OBJECT_NAME    = STARLINK-36996
OBJECT_ID      = 2026-041AA
CENTER_NAME    = EARTH
REF_FRAME      = TEME
TIME_SYSTEM    = UTC
MEAN_ELEMENT_THEORY = SGP/SGP4

EPOCH          = 2026-03-23T22:20:28.431168
MEAN_MOTION    = 15.80861555
ECCENTRICITY   = .00010685
INCLINATION    = 53.1593
RA_OF_ASC_NODE = 350.5589
ARG_OF_PERICENTER = 66.8548
MEAN_ANOMALY   = 293.2588

EPHEMERIS_TYPE = 0
CLASSIFICATION_TYPE = U
NORAD_CAT_ID   = 68064
ELEMENT_SET_NO = 999
REV_AT_EPOCH   = 347
BSTAR          = .16179257E-2
MEAN_MOTION_DOT = .331003E-2
MEAN_MOTION_DDOT = 0

CCSDS_OMM_VERS = 2.0
CREATION_DATE  = 
ORIGINATOR     = 

OBJECT_NAME    = STARLINK-36836
OBJECT_ID      = 2026-041AB
CENTER_NAME    = EARTH
REF_FRAME      = TEME
TIME_SYSTEM    = UTC
MEAN_ELEMENT_THEORY = SGP/SGP4

EPOCH          = 2026-03-23T22:18:18.836352
MEAN_MOTION    = 15.80853803
ECCENTRICITY   = .00009585
INCLINATION    = 53.1593
RA_OF_ASC_NODE = 350.5487
ARG_OF_PERICENTER = 66.2819
MEAN_ANOMALY   = 293.8304

EPHEMERIS_TYPE = 0
CLASSIFICATION_TYPE = U
NORAD_CAT_ID   = 68065
ELEMENT_SET_NO = 999
REV_AT_EPOCH   = 347
BSTAR          = .19092187E-2
MEAN_MOTION_DOT = .393468E-2
MEAN_MOTION_DDOT = 0

CCSDS_OMM_VERS = 2.0
CREATION_DATE  = 
ORIGINATOR     = 

OBJECT_NAME    = STARLINK-36976
OBJECT_ID      = 2026-041AC
CENTER_NAME    = EARTH
REF_FRAME      = TEME
TIME_SYSTEM    = UTC
MEAN_ELEMENT_THEORY = SGP/SGP4

EPOCH          = 2026-03-23T22:54:54.453024
MEAN_MOTION    = 15.75236274
ECCENTRICITY   = .00013833
INCLINATION    = 53.1581
RA_OF_ASC_NODE = 350.7173
ARG_OF_PERICENTER = 29.0818
MEAN_ANOMALY   = 331.0279

EPHEMERIS_TYPE = 0
CLASSIFICATION_TYPE = U
NORAD_CAT_ID   = 68066
ELEMENT_SET_NO = 999
REV_AT_EPOCH   = 347
BSTAR          = .19550248E-2
MEAN_MOTION_DOT = .310261E-2
MEAN_MOTION_DDOT = 0

CCSDS_OMM_VERS = 2.0
CREATION_DATE  = 
ORIGINATOR     = 

OBJECT_NAME    = STARLINK-36929
OBJECT_ID      = 2026-041AD
CENTER_NAME    = EARTH
REF_FRAME      = TEME
TIME_SYSTEM    = UTC
MEAN_ELEMENT_THEORY = SGP/SGP4

EPOCH          = 2026-03-23T23:00:56.725632
MEAN_MOTION    = 15.75297410
ECCENTRICITY   = .00012753
INCLINATION    = 53.1589
RA_OF_ASC_NODE = 350.7453
ARG_OF_PERICENTER = 127.5706
MEAN_ANOMALY   = 232.5431

EPHEMERIS_TYPE = 0
CLASSIFICATION_TYPE = U
NORAD_CAT_ID   = 68067
ELEMENT_SET_NO = 999
REV_AT_EPOCH   = 347
BSTAR          = .12864412E-2
MEAN_MOTION_DOT = .201846E-2
MEAN_MOTION_DDOT = 0

CCSDS_OMM_VERS = 2.0
CREATION_DATE  = 
ORIGINATOR     = 

OBJECT_NAME    = STARLINK-36990
OBJECT_ID      = 2026-041AE
CENTER_NAME    = EARTH
REF_FRAME      = TEME
TIME_SYSTEM    = UTC
MEAN_ELEMENT_THEORY = SGP/SGP4

EPOCH          = 2026-03-23T22:16:09.176736
MEAN_MOTION    = 15.80874068
ECCENTRICITY   = .00012473
INCLINATION    = 53.1594
RA_OF_ASC_NODE = 350.5380
ARG_OF_PERICENTER = 144.4293
MEAN_ANOMALY   = 215.6813

EPHEMERIS_TYPE = 0
CLASSIFICATION_TYPE = U
NORAD_CAT_ID   = 68068
ELEMENT_SET_NO = 999
REV_AT_EPOCH   = 347
BSTAR          = .17706059E-2
MEAN_MOTION_DOT = .363915E-2
MEAN_MOTION_DDOT = 0

CCSDS_OMM_VERS = 2.0
CREATION_DATE  = 
ORIGINATOR     = 

OBJECT_NAME    = STARLINK-36766
OBJECT_ID      = 2026-042A
CENTER_NAME    = EARTH
REF_FRAME      = TEME
TIME_SYSTEM    = UTC
MEAN_ELEMENT_THEORY = SGP/SGP4

EPOCH          = 2026-03-23T22:05:42.013824
MEAN_MOTION    = 15.80941872
ECCENTRICITY   = .00019244
INCLINATION    = 53.1579
RA_OF_ASC_NODE = 123.4589
ARG_OF_PERICENTER = 138.4596
MEAN_ANOMALY   = 221.6573

EPHEMERIS_TYPE = 0
CLASSIFICATION_TYPE = U
NORAD_CAT_ID   = 68069
ELEMENT_SET_NO = 999
REV_AT_EPOCH   = 433
BSTAR          = .17887814E-2
MEAN_MOTION_DOT = .369023E-2
MEAN_MOTION_DDOT = 0

CCSDS_OMM_VERS = 2.0
CREATION_DATE  = 
ORIGINATOR     = 

OBJECT_NAME    = STARLINK-36823
OBJECT_ID      = 2026-042B
CENTER_NAME    = EARTH
REF_FRAME      = TEME
TIME_SYSTEM    = UTC
MEAN_ELEMENT_THEORY = SGP/SGP4

EPOCH          = 2026-03-23T22:04:37.339104
MEAN_MOTION    = 15.80981991
ECCENTRICITY   = .00012846
INCLINATION    = 53.1575
RA_OF_ASC_NODE = 123.4529
ARG_OF_PERICENTER = 40.0650
MEAN_ANOMALY   = 320.0468

EPHEMERIS_TYPE = 0
CLASSIFICATION_TYPE = U
NORAD_CAT_ID   = 68070
ELEMENT_SET_NO = 999
REV_AT_EPOCH   = 433
BSTAR          = .23629171E-2
MEAN_MOTION_DOT = .495957E-2
MEAN_MOTION_DDOT = 0

CCSDS_OMM_VERS = 2.0
CREATION_DATE  = 
ORIGINATOR     = 

OBJECT_NAME    = STARLINK-36970
OBJECT_ID      = 2026-042C
CENTER_NAME    = EARTH
REF_FRAME      = TEME
TIME_SYSTEM    = UTC
MEAN_ELEMENT_THEORY = SGP/SGP4

EPOCH          = 2026-03-23T22:02:27.896352
MEAN_MOTION    = 15.80913455
ECCENTRICITY   = .00005312
INCLINATION    = 53.1576
RA_OF_ASC_NODE = 123.4432
ARG_OF_PERICENTER = 74.0154
MEAN_ANOMALY   = 286.0927

EPHEMERIS_TYPE = 0
CLASSIFICATION_TYPE = U
NORAD_CAT_ID   = 68071
ELEMENT_SET_NO = 999
REV_AT_EPOCH   = 433
BSTAR          = .18051127E-2
MEAN_MOTION_DOT = .372073E-2
MEAN_MOTION_DDOT = 0

